start=new Date('2021-11-24T00:00:00.000Z').valueOf();
sats=[{"PERIAPSIS":"546.292","SEMIMAJOR_AXIS":"6925.343","FILE":"3222418","NORAD_CAT_ID":"45369","ECCENTRICITY":"0.00013230","LAUNCH_DATE":"2020-03-18","CLASSIFICATION_TYPE":"U","MEAN_MOTION":"15.06401692","OBJECT_NAME":"STARLINK-1277","RA_OF_ASC_NODE":"1.9980","EPHEMERIS_TYPE":"0","REV_AT_EPOCH":"9352","TLE_LINE1":"1 45369U 20019K   21327.50342749  .00000311  00000-0  39747-4 0  9997","OBJECT_ID":"2020-019K","BSTAR":"0.00003974700000","MEAN_MOTION_DDOT":"0.0000000000000","APOAPSIS":"548.125","CENTER_NAME":"EARTH","REF_FRAME":"TEME","MEAN_ANOMALY":"285.8013","ARG_OF_PERICENTER":"74.3122","TIME_SYSTEM":"UTC","COUNTRY_CODE":"US","SITE":"AFETR","MEAN_ELEMENT_THEORY":"SGP4","MEAN_MOTION_DOT":"0.00000311","TLE_LINE2":"2 45369  53.0557   1.9980 0001323  74.3122 285.8013 15.06401692 93529","EPOCH":"2021-11-23T12:04:56.135136","ELEMENT_SET_NO":"999","PERIOD":"95.592","DECAY_DATE":null,"INCLINATION":"53.0557","RCS_SIZE":"LARGE","OBJECT_TYPE":"PAYLOAD","GP_ID":"190335961"},{"LAUNCH_DATE":"2020-03-18","CLASSIFICATION_TYPE":"U","MEAN_MOTION":"15.06394248","OBJECT_NAME":"STARLINK-1281","RA_OF_ASC_NODE":"2.6263","PERIAPSIS":"546.289","SEMIMAJOR_AXIS":"6925.366","FILE":"3222418","NORAD_CAT_ID":"45370","ECCENTRICITY":"0.00013610","REF_FRAME":"TEME","MEAN_ANOMALY":"287.2756","ARG_OF_PERICENTER":"72.8381","REV_AT_EPOCH":"9350","EPHEMERIS_TYPE":"0","TLE_LINE1":"1 45370U 20019L   21327.36062827 -.00000371  00000-0 -60307-5 0  9994","OBJECT_ID":"2020-019L","MEAN_MOTION_DDOT":"0.0000000000000","BSTAR":"-0.00000603070000","APOAPSIS":"548.174","CENTER_NAME":"EARTH","EPOCH":"2021-11-23T08:39:18.282528","ELEMENT_SET_NO":"999","PERIOD":"95.593","TIME_SYSTEM":"UTC","COUNTRY_CODE":"US","SITE":"AFETR","MEAN_ELEMENT_THEORY":"SGP4","MEAN_MOTION_DOT":"-0.00000371","TLE_LINE2":"2 45370  53.0556   2.6263 0001361  72.8381 287.2756 15.06394248 93500","OBJECT_TYPE":"PAYLOAD","GP_ID":"190334711","INCLINATION":"53.0556","DECAY_DATE":null,"RCS_SIZE":"LARGE"},{"REV_AT_EPOCH":"9353","EPHEMERIS_TYPE":"0","OBJECT_ID":"2020-019M","TLE_LINE1":"1 45371U 20019M   21327.58916098 -.00000499  00000-0 -14571-4 0  9999","APOAPSIS":"548.298","MEAN_MOTION_DDOT":"0.0000000000000","BSTAR":"-0.00001457100000","CENTER_NAME":"EARTH","REF_FRAME":"TEME","MEAN_ANOMALY":"303.8782","ARG_OF_PERICENTER":"56.2354","SEMIMAJOR_AXIS":"6925.360","PERIAPSIS":"546.151","ECCENTRICITY":"0.00015500","FILE":"3222563","NORAD_CAT_ID":"45371","LAUNCH_DATE":"2020-03-18","MEAN_MOTION":"15.06396338","CLASSIFICATION_TYPE":"U","RA_OF_ASC_NODE":"1.6052","OBJECT_NAME":"STARLINK-1287","DECAY_DATE":null,"RCS_SIZE":"LARGE","INCLINATION":"53.0544","GP_ID":"190361753","OBJECT_TYPE":"PAYLOAD","TIME_SYSTEM":"UTC","SITE":"AFETR","COUNTRY_CODE":"US","MEAN_ELEMENT_THEORY":"SGP4","MEAN_MOTION_DOT":"-0.00000499","TLE_LINE2":"2 45371  53.0544   1.6052 0001550  56.2354 303.8782 15.06396338 93538","EPOCH":"2021-11-23T14:08:23.508672","ELEMENT_SET_NO":"999","PERIOD":"95.592"},{"MEAN_MOTION_DOT":"-0.00000104","TLE_LINE2":"2 45372  53.0565   2.1454 0001426  69.0189 291.0953 15.06397476 93514","MEAN_ELEMENT_THEORY":"SGP4","COUNTRY_CODE":"US","SITE":"AFETR","TIME_SYSTEM":"UTC","PERIOD":"95.592","ELEMENT_SET_NO":"999","EPOCH":"2021-11-23T11:18:32.167296","INCLINATION":"53.0565","DECAY_DATE":null,"RCS_SIZE":"LARGE","OBJECT_TYPE":"PAYLOAD","GP_ID":"190314542","FILE":"3222400","NORAD_CAT_ID":"45372","ECCENTRICITY":"0.00014260","PERIAPSIS":"546.234","SEMIMAJOR_AXIS":"6925.356","RA_OF_ASC_NODE":"2.1454","OBJECT_NAME":"STARLINK-1288","CLASSIFICATION_TYPE":"U","MEAN_MOTION":"15.06397476","LAUNCH_DATE":"2020-03-18","CENTER_NAME":"EARTH","BSTAR":"0.00001191100000","MEAN_MOTION_DDOT":"0.0000000000000","APOAPSIS":"548.209","TLE_LINE1":"1 45372U 20019N   21327.47120564 -.00000104  00000-0  11911-4 0  9990","OBJECT_ID":"2020-019N","REV_AT_EPOCH":"9351","EPHEMERIS_TYPE":"0","ARG_OF_PERICENTER":"69.0189","MEAN_ANOMALY":"291.0953","REF_FRAME":"TEME"},{"RCS_SIZE":"LARGE","DECAY_DATE":null,"INCLINATION":"53.0554","GP_ID":"190361252","OBJECT_TYPE":"PAYLOAD","MEAN_ELEMENT_THEORY":"SGP4","MEAN_MOTION_DOT":"-0.00000042","TLE_LINE2":"2 45373  53.0554   1.6280 0001539  54.2412 305.8720 15.06399647 93534","TIME_SYSTEM":"UTC","SITE":"AFETR","COUNTRY_CODE":"US","ELEMENT_SET_NO":"999","PERIOD":"95.592","EPOCH":"2021-11-23T14:03:04.611456","APOAPSIS":"548.280","BSTAR":"0.00001606500000","MEAN_MOTION_DDOT":"0.0000000000000","CENTER_NAME":"EARTH","REV_AT_EPOCH":"9353","EPHEMERIS_TYPE":"0","OBJECT_ID":"2020-019P","TLE_LINE1":"1 45373U 20019P   21327.58547004 -.00000042  00000-0  16065-4 0  9991","ARG_OF_PERICENTER":"54.2412","REF_FRAME":"TEME","MEAN_ANOMALY":"305.8720","ECCENTRICITY":"0.00015390","NORAD_CAT_ID":"45373","FILE":"3222563","SEMIMAJOR_AXIS":"6925.350","PERIAPSIS":"546.149","MEAN_MOTION":"15.06399647","CLASSIFICATION_TYPE":"U","RA_OF_ASC_NODE":"1.6280","OBJECT_NAME":"STARLINK-1295","LAUNCH_DATE":"2020-03-18"},{"PERIOD":"95.592","ELEMENT_SET_NO":"999","EPOCH":"2021-11-23T12:22:13.408608","MEAN_MOTION_DOT":"0.00001867","TLE_LINE2":"2 45374  53.0554   1.9436 0001614  57.6188 302.4957 15.06399336 93521","MEAN_ELEMENT_THEORY":"SGP4","COUNTRY_CODE":"US","SITE":"AFETR","TIME_SYSTEM":"UTC","OBJECT_TYPE":"PAYLOAD","GP_ID":"190314559","RCS_SIZE":"LARGE","DECAY_DATE":null,"INCLINATION":"53.0554","RA_OF_ASC_NODE":"1.9436","OBJECT_NAME":"STARLINK-1300","CLASSIFICATION_TYPE":"U","MEAN_MOTION":"15.06399336","LAUNCH_DATE":"2020-03-18","FILE":"3222387","NORAD_CAT_ID":"45374","ECCENTRICITY":"0.00016140","PERIAPSIS":"546.098","SEMIMAJOR_AXIS":"6925.351","ARG_OF_PERICENTER":"57.6188","MEAN_ANOMALY":"302.4957","REF_FRAME":"TEME","CENTER_NAME":"EARTH","BSTAR":"0.00014421000000","MEAN_MOTION_DDOT":"0.0000000000000","APOAPSIS":"548.333","TLE_LINE1":"1 45374U 20019Q   21327.51543297  .00001867  00000-0  14421-3 0  9993","OBJECT_ID":"2020-019Q","REV_AT_EPOCH":"9352","EPHEMERIS_TYPE":"0"},{"ECCENTRICITY":"0.00015030","NORAD_CAT_ID":"45375","FILE":"3222418","SEMIMAJOR_AXIS":"6925.346","PERIAPSIS":"546.170","MEAN_MOTION":"15.06400963","CLASSIFICATION_TYPE":"U","OBJECT_NAME":"STARLINK-1302","RA_OF_ASC_NODE":"2.4765","LAUNCH_DATE":"2020-03-18","APOAPSIS":"548.251","BSTAR":"0.00001648900000","MEAN_MOTION_DDOT":"0.0000000000000","CENTER_NAME":"EARTH","EPHEMERIS_TYPE":"0","REV_AT_EPOCH":"9350","OBJECT_ID":"2020-019R","TLE_LINE1":"1 45375U 20019R   21327.39747977 -.00000036  00000-0  16489-4 0  9996","ARG_OF_PERICENTER":"70.1521","REF_FRAME":"TEME","MEAN_ANOMALY":"289.9630","MEAN_ELEMENT_THEORY":"SGP4","TLE_LINE2":"2 45375  53.0565   2.4765 0001503  70.1521 289.9630 15.06400963 93507","MEAN_MOTION_DOT":"-0.00000036","TIME_SYSTEM":"UTC","SITE":"AFETR","COUNTRY_CODE":"US","ELEMENT_SET_NO":"999","PERIOD":"95.592","EPOCH":"2021-11-23T09:32:22.252128","RCS_SIZE":"LARGE","DECAY_DATE":null,"INCLINATION":"53.0565","GP_ID":"190334962","OBJECT_TYPE":"PAYLOAD"},{"EPOCH":"2021-11-23T11:34:27.372864","PERIOD":"95.592","ELEMENT_SET_NO":"999","COUNTRY_CODE":"US","SITE":"AFETR","TIME_SYSTEM":"UTC","TLE_LINE2":"2 45376  53.0560   2.0935 0001561  74.3824 285.7337 15.06398301 93515","MEAN_MOTION_DOT":"-0.00000212","MEAN_ELEMENT_THEORY":"SGP4","OBJECT_TYPE":"PAYLOAD","GP_ID":"190336213","INCLINATION":"53.0560","DECAY_DATE":null,"RCS_SIZE":"LARGE","LAUNCH_DATE":"2020-03-18","OBJECT_NAME":"STARLINK-1304","RA_OF_ASC_NODE":"2.0935","CLASSIFICATION_TYPE":"U","MEAN_MOTION":"15.06398301","PERIAPSIS":"546.138","SEMIMAJOR_AXIS":"6925.354","NORAD_CAT_ID":"45376","FILE":"3222418","ECCENTRICITY":"0.00015610","MEAN_ANOMALY":"285.7337","REF_FRAME":"TEME","ARG_OF_PERICENTER":"74.3824","TLE_LINE1":"1 45376U 20019S   21327.48226126 -.00000212  00000-0  46534-5 0  9996","OBJECT_ID":"2020-019S","REV_AT_EPOCH":"9351","EPHEMERIS_TYPE":"0","CENTER_NAME":"EARTH","BSTAR":"0.00000465340000","MEAN_MOTION_DDOT":"0.0000000000000","APOAPSIS":"548.300"},{"ARG_OF_PERICENTER":"58.6322","REF_FRAME":"TEME","MEAN_ANOMALY":"301.4805","APOAPSIS":"548.183","BSTAR":"0.00009163100000","MEAN_MOTION_DDOT":"0.0000000000000","CENTER_NAME":"EARTH","REV_AT_EPOCH":"9352","EPHEMERIS_TYPE":"0","OBJECT_ID":"2020-019T","TLE_LINE1":"1 45377U 20019T   21327.50807275  .00001084  00000-0  91631-4 0  9994","MEAN_MOTION":"15.06404307","CLASSIFICATION_TYPE":"U","RA_OF_ASC_NODE":"1.9743","OBJECT_NAME":"STARLINK-1305","LAUNCH_DATE":"2020-03-18","ECCENTRICITY":"0.00014190","FILE":"3222388","NORAD_CAT_ID":"45377","SEMIMAJOR_AXIS":"6925.335","PERIAPSIS":"546.218","GP_ID":"190314947","OBJECT_TYPE":"PAYLOAD","INCLINATION":"53.0550","DECAY_DATE":null,"RCS_SIZE":"LARGE","ELEMENT_SET_NO":"999","PERIOD":"95.592","EPOCH":"2021-11-23T12:11:37.485600","MEAN_ELEMENT_THEORY":"SGP4","TLE_LINE2":"2 45377  53.0550   1.9743 0001419  58.6322 301.4805 15.06404307 93521","MEAN_MOTION_DOT":"0.00001084","TIME_SYSTEM":"UTC","SITE":"AFETR","COUNTRY_CODE":"US"},{"INCLINATION":"53.0563","DECAY_DATE":null,"RCS_SIZE":"LARGE","OBJECT_TYPE":"PAYLOAD","GP_ID":"190334712","MEAN_MOTION_DOT":"0.00001352","TLE_LINE2":"2 45378  53.0563   2.6256 0001329  62.9125 297.1999 15.06399086 93502","MEAN_ELEMENT_THEORY":"SGP4","COUNTRY_CODE":"US","SITE":"AFETR","TIME_SYSTEM":"UTC","PERIOD":"95.592","ELEMENT_SET_NO":"999","EPOCH":"2021-11-23T08:44:36.984480","CENTER_NAME":"EARTH","BSTAR":"0.00010961000000","MEAN_MOTION_DDOT":"0.0000000000000","APOAPSIS":"548.137","TLE_LINE1":"1 45378U 20019U   21327.36431695  .00001352  00000-0  10961-3 0  9992","OBJECT_ID":"2020-019U","REV_AT_EPOCH":"9350","EPHEMERIS_TYPE":"0","ARG_OF_PERICENTER":"62.9125","MEAN_ANOMALY":"297.1999","REF_FRAME":"TEME","FILE":"3222418","NORAD_CAT_ID":"45378","ECCENTRICITY":"0.00013290","PERIAPSIS":"546.296","SEMIMAJOR_AXIS":"6925.351","RA_OF_ASC_NODE":"2.6256","OBJECT_NAME":"STARLINK-1310","CLASSIFICATION_TYPE":"U","MEAN_MOTION":"15.06399086","LAUNCH_DATE":"2020-03-18"}];
